start=new Date('2022-05-21T00:00:00.000Z').valueOf();
sats=[{"ECCENTRICITY":"0.00018210","MEAN_MOTION_DDOT":"0.0000000000000","TIME_SYSTEM":"UTC","RCS_SIZE":"LARGE","EPHEMERIS_TYPE":"0","CLASSIFICATION_TYPE":"U","LAUNCH_DATE":"2020-06-13","RA_OF_ASC_NODE":"332.8186","MEAN_ELEMENT_THEORY":"SGP4","APOAPSIS":"548.468","OBJECT_TYPE":"PAYLOAD","COUNTRY_CODE":"US","NORAD_CAT_ID":"45751","GP_ID":"204005220","OBJECT_ID":"2020-038X","SEMIMAJOR_AXIS":"6925.342","REV_AT_EPOCH":"10821","TLE_LINE2":"2 45751  53.0564 332.8186 0001821  66.3504 293.7676 15.06402237108216","TLE_LINE1":"1 45751U 20038X   22140.52694632  .00001376  00000-0  11128-3 0  9994","OBJECT_NAME":"STARLINK-1464","PERIOD":"95.592","SITE":"AFETR","DECAY_DATE":null,"ELEMENT_SET_NO":"999","ARG_OF_PERICENTER":"66.3504","CENTER_NAME":"EARTH","FILE":"3454472","INCLINATION":"53.0564","REF_FRAME":"TEME","EPOCH":"2022-05-20T12:38:48.162048","MEAN_MOTION":"15.06402237","BSTAR":"0.00011128000000","MEAN_ANOMALY":"293.7676","PERIAPSIS":"545.946","MEAN_MOTION_DOT":"0.00001376"},{"INCLINATION":"52.9989","REF_FRAME":"TEME","FILE":"3455160","CENTER_NAME":"EARTH","ARG_OF_PERICENTER":"279.5634","ELEMENT_SET_NO":"999","DECAY_DATE":null,"SITE":"AFETR","PERIOD":"91.328","MEAN_MOTION_DOT":"0.00003168","PERIAPSIS":"334.514","MEAN_ANOMALY":"80.4513","BSTAR":"0.00002336900000","MEAN_MOTION":"15.76735492","EPOCH":"2022-05-20T09:50:19.157280","RA_OF_ASC_NODE":"35.0048","CLASSIFICATION_TYPE":"U","LAUNCH_DATE":"2020-06-13","EPHEMERIS_TYPE":"0","RCS_SIZE":"LARGE","TIME_SYSTEM":"UTC","MEAN_MOTION_DDOT":"0.0000000000000","ECCENTRICITY":"0.00077180","OBJECT_NAME":"STARLINK-1469","TLE_LINE1":"1 45752U 20038Y   22140.40994395  .00003168  00000-0  23369-4 0  9993","TLE_LINE2":"2 45752  52.9989  35.0048 0007718 279.5634  80.4513 15.76735492111212","SEMIMAJOR_AXIS":"6717.834","REV_AT_EPOCH":"11121","OBJECT_ID":"2020-038Y","GP_ID":"204039511","NORAD_CAT_ID":"45752","OBJECT_TYPE":"PAYLOAD","COUNTRY_CODE":"US","APOAPSIS":"344.884","MEAN_ELEMENT_THEORY":"SGP4"},{"MEAN_MOTION_DOT":"0.00001413","PERIAPSIS":"546.306","MEAN_ANOMALY":"301.3796","BSTAR":"0.00011369000000","MEAN_MOTION":"15.06404743","EPOCH":"2022-05-20T11:19:10.680960","INCLINATION":"53.0543","REF_FRAME":"TEME","FILE":"3455160","ARG_OF_PERICENTER":"58.7320","CENTER_NAME":"EARTH","ELEMENT_SET_NO":"999","DECAY_DATE":null,"SITE":"AFETR","PERIOD":"95.592","OBJECT_NAME":"STARLINK-1476","TLE_LINE1":"1 45753U 20038Z   22140.47165140  .00001413  00000-0  11369-3 0  9996","TLE_LINE2":"2 45753  53.0543 333.0703 0001289  58.7320 301.3796 15.06404743107090","REV_AT_EPOCH":"10709","SEMIMAJOR_AXIS":"6925.334","OBJECT_ID":"2020-038Z","GP_ID":"204038283","NORAD_CAT_ID":"45753","OBJECT_TYPE":"PAYLOAD","COUNTRY_CODE":"US","APOAPSIS":"548.092","MEAN_ELEMENT_THEORY":"SGP4","RA_OF_ASC_NODE":"333.0703","CLASSIFICATION_TYPE":"U","LAUNCH_DATE":"2020-06-13","EPHEMERIS_TYPE":"0","RCS_SIZE":"LARGE","TIME_SYSTEM":"UTC","MEAN_MOTION_DDOT":"0.0000000000000","ECCENTRICITY":"0.00012890"},{"CENTER_NAME":"EARTH","ARG_OF_PERICENTER":"91.7889","REF_FRAME":"TEME","INCLINATION":"53.0555","FILE":"3455374","ELEMENT_SET_NO":"999","SITE":"AFETR","PERIOD":"95.592","DECAY_DATE":null,"MEAN_ANOMALY":"268.3264","MEAN_MOTION_DOT":"0.00001270","PERIAPSIS":"546.233","BSTAR":"0.00010414000000","MEAN_MOTION":"15.06398129","EPOCH":"2022-05-20T13:00:02.397024","EPHEMERIS_TYPE":"0","RA_OF_ASC_NODE":"332.7451","LAUNCH_DATE":"2020-06-13","CLASSIFICATION_TYPE":"U","RCS_SIZE":"LARGE","TIME_SYSTEM":"UTC","MEAN_MOTION_DDOT":"0.0000000000000","ECCENTRICITY":"0.00014240","OBJECT_NAME":"STARLINK-1477","TLE_LINE1":"1 45754U 20038AA  22140.54169441  .00001270  00000-0  10414-3 0  9994","TLE_LINE2":"2 45754  53.0555 332.7451 0001424  91.7889 268.3264 15.06398129108068","GP_ID":"204046806","NORAD_CAT_ID":"45754","OBJECT_ID":"2020-038AA","OBJECT_TYPE":"PAYLOAD","COUNTRY_CODE":"US","SEMIMAJOR_AXIS":"6925.354","REV_AT_EPOCH":"10806","APOAPSIS":"548.205","MEAN_ELEMENT_THEORY":"SGP4"},{"RCS_SIZE":"LARGE","RA_OF_ASC_NODE":"332.6733","CLASSIFICATION_TYPE":"U","LAUNCH_DATE":"2020-06-13","EPHEMERIS_TYPE":"0","ECCENTRICITY":"0.00010410","MEAN_MOTION_DDOT":"0.0000000000000","TIME_SYSTEM":"UTC","TLE_LINE1":"1 45755U 20038AB  22140.56011372  .00003579  00000-0  25900-3 0  9996","TLE_LINE2":"2 45755  53.0537 332.6733 0001041  60.2617 299.8475 15.06405960107093","OBJECT_NAME":"STARLINK-1478","APOAPSIS":"547.916","MEAN_ELEMENT_THEORY":"SGP4","REV_AT_EPOCH":"10709","SEMIMAJOR_AXIS":"6925.330","GP_ID":"204039285","OBJECT_ID":"2020-038AB","NORAD_CAT_ID":"45755","OBJECT_TYPE":"PAYLOAD","COUNTRY_CODE":"US","ELEMENT_SET_NO":"999","REF_FRAME":"TEME","INCLINATION":"53.0537","FILE":"3455160","CENTER_NAME":"EARTH","ARG_OF_PERICENTER":"60.2617","DECAY_DATE":null,"SITE":"AFETR","PERIOD":"95.592","BSTAR":"0.00025900000000","MEAN_MOTION_DOT":"0.00003579","PERIAPSIS":"546.474","MEAN_ANOMALY":"299.8475","EPOCH":"2022-05-20T13:26:33.825408","MEAN_MOTION":"15.06405960"},{"EPOCH":"2022-05-20T16:32:20.354208","MEAN_MOTION":"15.06405163","BSTAR":"0.00012378000000","PERIAPSIS":"546.126","MEAN_MOTION_DOT":"0.00001563","MEAN_ANOMALY":"287.7997","DECAY_DATE":null,"PERIOD":"95.592","SITE":"AFETR","ELEMENT_SET_NO":"999","FILE":"3455376","INCLINATION":"53.0556","REF_FRAME":"TEME","ARG_OF_PERICENTER":"72.3161","CENTER_NAME":"EARTH","MEAN_ELEMENT_THEORY":"SGP4","APOAPSIS":"548.269","SEMIMAJOR_AXIS":"6925.333","REV_AT_EPOCH":"10823","COUNTRY_CODE":"US","OBJECT_TYPE":"PAYLOAD","GP_ID":"204046853","OBJECT_ID":"2020-038AC","NORAD_CAT_ID":"45756","TLE_LINE2":"2 45756  53.0556 332.0931 0001547  72.3161 287.7997 15.06405163108235","TLE_LINE1":"1 45756U 20038AC  22140.68912447  .00001563  00000-0  12378-3 0  9999","OBJECT_NAME":"STARLINK-1484","ECCENTRICITY":"0.00015470","TIME_SYSTEM":"UTC","MEAN_MOTION_DDOT":"0.0000000000000","RCS_SIZE":"LARGE","CLASSIFICATION_TYPE":"U","LAUNCH_DATE":"2020-06-13","RA_OF_ASC_NODE":"332.0931","EPHEMERIS_TYPE":"0"},{"LAUNCH_DATE":"2020-06-13","CLASSIFICATION_TYPE":"U","RA_OF_ASC_NODE":"334.0902","EPHEMERIS_TYPE":"0","RCS_SIZE":"LARGE","MEAN_MOTION_DDOT":"0.0000000000000","TIME_SYSTEM":"UTC","ECCENTRICITY":"0.00016390","OBJECT_NAME":"STARLINK-1486","TLE_LINE2":"2 45757  53.0553 334.0902 0001639  59.7346 300.3805 15.06395917107042","TLE_LINE1":"1 45757U 20038AD  22140.24313380  .00000366  00000-0  43495-4 0  9998","REV_AT_EPOCH":"10704","SEMIMAJOR_AXIS":"6925.361","COUNTRY_CODE":"US","OBJECT_TYPE":"PAYLOAD","NORAD_CAT_ID":"45757","GP_ID":"204037784","OBJECT_ID":"2020-038AD","MEAN_ELEMENT_THEORY":"SGP4","APOAPSIS":"548.361","FILE":"3455160","REF_FRAME":"TEME","INCLINATION":"53.0553","CENTER_NAME":"EARTH","ARG_OF_PERICENTER":"59.7346","ELEMENT_SET_NO":"999","DECAY_DATE":null,"PERIOD":"95.592","SITE":"AFETR","PERIAPSIS":"546.091","MEAN_MOTION_DOT":"0.00000366","MEAN_ANOMALY":"300.3805","BSTAR":"0.00004349500000","MEAN_MOTION":"15.06395917","EPOCH":"2022-05-20T05:50:06.760320"},{"FILE":"3455160","REF_FRAME":"TEME","INCLINATION":"53.0545","ARG_OF_PERICENTER":"57.8632","CENTER_NAME":"EARTH","ELEMENT_SET_NO":"999","DECAY_DATE":null,"PERIOD":"95.592","SITE":"AFETR","PERIAPSIS":"546.178","MEAN_MOTION_DOT":"0.00002368","MEAN_ANOMALY":"302.2502","BSTAR":"0.00017779000000","MEAN_MOTION":"15.06400394","EPOCH":"2022-05-20T13:37:11.298432","CLASSIFICATION_TYPE":"U","LAUNCH_DATE":"2020-06-13","RA_OF_ASC_NODE":"332.6278","EPHEMERIS_TYPE":"0","RCS_SIZE":"LARGE","MEAN_MOTION_DDOT":"0.0000000000000","TIME_SYSTEM":"UTC","ECCENTRICITY":"0.00014940","OBJECT_NAME":"STARLINK-1487","TLE_LINE2":"2 45758  53.0545 332.6278 0001494  57.8632 302.2502 15.06400394107096","TLE_LINE1":"1 45758U 20038AE  22140.56749188  .00002368  00000-0  17779-3 0  9992","SEMIMAJOR_AXIS":"6925.347","REV_AT_EPOCH":"10709","COUNTRY_CODE":"US","OBJECT_TYPE":"PAYLOAD","GP_ID":"204038034","OBJECT_ID":"2020-038AE","NORAD_CAT_ID":"45758","MEAN_ELEMENT_THEORY":"SGP4","APOAPSIS":"548.247"},{"MEAN_ANOMALY":"302.3387","MEAN_MOTION_DOT":"-0.00000033","PERIAPSIS":"546.160","BSTAR":"0.00001666100000","MEAN_MOTION":"15.06397313","EPOCH":"2022-05-20T13:10:39.130464","ARG_OF_PERICENTER":"57.7751","CENTER_NAME":"EARTH","REF_FRAME":"TEME","INCLINATION":"53.0568","FILE":"3455160","ELEMENT_SET_NO":"999","SITE":"AFETR","PERIOD":"95.592","DECAY_DATE":null,"OBJECT_NAME":"STARLINK-1493","TLE_LINE1":"1 45759U 20038AF  22140.54906401 -.00000033  00000-0  16661-4 0  9992","TLE_LINE2":"2 45759  53.0568 332.7082 0001533  57.7751 302.3387 15.06397313107099","NORAD_CAT_ID":"45759","GP_ID":"204038786","OBJECT_ID":"2020-038AF","OBJECT_TYPE":"PAYLOAD","COUNTRY_CODE":"US","REV_AT_EPOCH":"10709","SEMIMAJOR_AXIS":"6925.357","APOAPSIS":"548.283","MEAN_ELEMENT_THEORY":"SGP4","EPHEMERIS_TYPE":"0","RA_OF_ASC_NODE":"332.7082","LAUNCH_DATE":"2020-06-13","CLASSIFICATION_TYPE":"U","RCS_SIZE":"LARGE","MEAN_MOTION_DDOT":"0.0000000000000","TIME_SYSTEM":"UTC","ECCENTRICITY":"0.00015330"},{"TLE_LINE2":"2 45760  53.0528 332.7103 0001700  66.9196 293.1972 15.06402934108029","TLE_LINE1":"1 45760U 20038AG  22140.55274614  .00000484  00000-0  51370-4 0  9994","OBJECT_NAME":"STARLINK-1494","MEAN_ELEMENT_THEORY":"SGP4","APOAPSIS":"548.382","COUNTRY_CODE":"US","OBJECT_TYPE":"PAYLOAD","OBJECT_ID":"2020-038AG","GP_ID":"204047345","NORAD_CAT_ID":"45760","SEMIMAJOR_AXIS":"6925.340","REV_AT_EPOCH":"10802","RCS_SIZE":"LARGE","EPHEMERIS_TYPE":"0","LAUNCH_DATE":"2020-06-13","CLASSIFICATION_TYPE":"U","RA_OF_ASC_NODE":"332.7103","ECCENTRICITY":"0.00017000","TIME_SYSTEM":"UTC","MEAN_MOTION_DDOT":"0.0000000000000","BSTAR":"0.00005137000000","MEAN_ANOMALY":"293.1972","PERIAPSIS":"546.027","MEAN_MOTION_DOT":"0.00000484","EPOCH":"2022-05-20T13:15:57.266496","MEAN_MOTION":"15.06402934","ELEMENT_SET_NO":"999","CENTER_NAME":"EARTH","ARG_OF_PERICENTER":"66.9196","FILE":"3455376","REF_FRAME":"TEME","INCLINATION":"53.0528","PERIOD":"95.592","SITE":"AFETR","DECAY_DATE":null}];
